[{"OBJECT_NAME":"STARLINK-2046","OBJECT_ID":"2021-005F","EPOCH":"2026-03-09T07:14:34.390752","MEAN_MOTION":15.30240663,"ECCENTRICITY":0.00011823,"INCLINATION":53.16,"RA_OF_ASC_NODE":25.7636,"ARG_OF_PERICENTER":90.9763,"MEAN_ANOMALY":269.1373,"EPHEMERIS_TYPE":0,"CLASSIFICATION_TYPE":"U","NORAD_CAT_ID":47354,"ELEMENT_SET_NO":999,"REV_AT_EPOCH":28351,"BSTAR":0.00052507363,"MEAN_MOTION_DOT":0.00015243,"MEAN_MOTION_DDOT":0},{"OBJECT_NAME":"CZ-6A DEB","OBJECT_ID":"2022-151SD","EPOCH":"2026-03-09T21:25:15.700512","MEAN_MOTION":15.24469357,"ECCENTRICITY":0.00248717,"INCLINATION":98.6538,"RA_OF_ASC_NODE":157.5128,"ARG_OF_PERICENTER":174.047,"MEAN_ANOMALY":186.1065,"EPHEMERIS_TYPE":0,"CLASSIFICATION_TYPE":"U","NORAD_CAT_ID":54940,"ELEMENT_SET_NO":999,"REV_AT_EPOCH":17680,"BSTAR":0.0087519903,"MEAN_MOTION_DOT":0.00223015,"MEAN_MOTION_DDOT":0}]
